{
  "type": "FeatureCollection",
  "features": [
    {
      "type": "Feature",
      "properties": {
        "norad_id": 36173,
        "name": "FENGYUN 1C DEB",
        "group": "fengyun-1c-debris",
        "lat": -59.66152921608399,
        "lon": -42.676229341818896,
        "alt_km": 852.3551655435331,
        "timestamp": "2025-12-11T20:41:15.368749+00:00",
        "meta_object_name": "FENGYUN 1C DEB",
        "meta_object_id": "1999-025DSW",
        "meta_epoch": "2025-12-10T02:51:11.203488",
        "meta_mean_motion": 14.25169859,
        "meta_eccentricity": 0.0146399,
        "meta_inclination": 98.2133,
        "meta_ra_of_asc_node": 301.4038,
        "meta_arg_of_pericenter": 192.9431,
        "meta_mean_anomaly": 166.7976,
        "meta_ephemeris_type": 0,
        "meta_classification_type": "U",
        "meta_norad_cat_id": 36173,
        "meta_element_set_no": 999,
        "meta_rev_at_epoch": 59053,
        "meta_bstar": 0.0004108008,
        "meta_mean_motion_dot": 1.038e-05,
        "meta_mean_motion_ddot": 0,
        "tle_line1": "1 36173U 99025DSW 25344.11887967  .00001038  00000+0  41080-3 0  9997",
        "tle_line2": "2 36173  98.2133 301.4038 0146399 192.9431 166.7976 14.25169859590532"
      },
      "geometry": {
        "type": "Point",
        "coordinates": [
          -42.676229341818896,
          -59.66152921608399
        ]
      }
    },
    {
      "type": "Feature",
      "properties": {
        "norad_id": 36180,
        "name": "FENGYUN 1C DEB",
        "group": "fengyun-1c-debris",
        "lat": -71.26610796384867,
        "lon": 75.53830717424239,
        "alt_km": 870.7082531546403,
        "timestamp": "2025-12-11T20:41:15.368758+00:00",
        "meta_object_name": "FENGYUN 1C DEB",
        "meta_object_id": "1999-025DTD",
        "meta_epoch": "2025-12-05T21:21:22.276224",
        "meta_mean_motion": 14.20680074,
        "meta_eccentricity": 0.02106275,
        "meta_inclination": 98.4572,
        "meta_ra_of_asc_node": 43.7979,
        "meta_arg_of_pericenter": 50.8055,
        "meta_mean_anomaly": 311.1621,
        "meta_ephemeris_type": 0,
        "meta_classification_type": "U",
        "meta_norad_cat_id": 36180,
        "meta_element_set_no": 999,
        "meta_rev_at_epoch": 70486,
        "meta_bstar": 0.00091841135,
        "meta_mean_motion_dot": 2.432e-05,
        "meta_mean_motion_ddot": 0,
        "tle_line1": "1 36180U 99025DTD 25339.88984116  .00002432  00000+0  91841-3 0  9996",
        "tle_line2": "2 36180  98.4572  43.7979 0210627  50.8055 311.1621 14.20680074704867"
      },
      "geometry": {
        "type": "Point",
        "coordinates": [
          75.53830717424239,
          -71.26610796384867
        ]
      }
    },
    {
      "type": "Feature",
      "properties": {
        "norad_id": 36182,
        "name": "FENGYUN 1C DEB",
        "group": "fengyun-1c-debris",
        "lat": 55.830162671690495,
        "lon": 107.00910568668807,
        "alt_km": 759.5469086796102,
        "timestamp": "2025-12-11T20:41:15.368769+00:00",
        "meta_object_name": "FENGYUN 1C DEB",
        "meta_object_id": "1999-025DTF",
        "meta_epoch": "2025-12-11T13:25:23.226240",
        "meta_mean_motion": 14.34707168,
        "meta_eccentricity": 0.00218613,
        "meta_inclination": 99.0881,
        "meta_ra_of_asc_node": 273.0524,
        "meta_arg_of_pericenter": 79.0589,
        "meta_mean_anomaly": 281.3052,
        "meta_ephemeris_type": 0,
        "meta_classification_type": "U",
        "meta_norad_cat_id": 36182,
        "meta_element_set_no": 999,
        "meta_rev_at_epoch": 87940,
        "meta_bstar": 0.0024811831,
        "meta_mean_motion_dot": 7.003e-05,
        "meta_mean_motion_ddot": 0,
        "tle_line1": "1 36182U 99025DTF 25345.55929660  .00007003  00000+0  24812-2 0  9994",
        "tle_line2": "2 36182  99.0881 273.0524 0021861  79.0589 281.3052 14.34707168879406"
      },
      "geometry": {
        "type": "Point",
        "coordinates": [
          107.00910568668807,
          55.830162671690495
        ]
      }
    },
    {
      "type": "Feature",
      "properties": {
        "norad_id": 36186,
        "name": "FENGYUN 1C DEB",
        "group": "fengyun-1c-debris",
        "lat": 72.06637013575167,
        "lon": 58.311413660816555,
        "alt_km": 530.9970100172086,
        "timestamp": "2025-12-11T20:41:15.368779+00:00",
        "meta_object_name": "FENGYUN 1C DEB",
        "meta_object_id": "1999-025DTK",
        "meta_epoch": "2025-12-06T21:01:26.135616",
        "meta_mean_motion": 15.09149878,
        "meta_eccentricity": 0.00147295,
        "meta_inclination": 98.9889,
        "meta_ra_of_asc_node": 203.1836,
        "meta_arg_of_pericenter": 349.9169,
        "meta_mean_anomaly": 20.7197,
        "meta_ephemeris_type": 0,
        "meta_classification_type": "U",
        "meta_norad_cat_id": 36186,
        "meta_element_set_no": 999,
        "meta_rev_at_epoch": 61482,
        "meta_bstar": 0.015546812,
        "meta_mean_motion_dot": 0.00256087,
        "meta_mean_motion_ddot": 0,
        "tle_line1": "1 36186U 99025DTK 25340.87599694  .00256087  00000+0  15547-1 0  9990",
        "tle_line2": "2 36186  98.9889 203.1836 0014729 349.9169  20.7197 15.09149878614823"
      },
      "geometry": {
        "type": "Point",
        "coordinates": [
          58.311413660816555,
          72.06637013575167
        ]
      }
    },
    {
      "type": "Feature",
      "properties": {
        "norad_id": 36188,
        "name": "FENGYUN 1C DEB",
        "group": "fengyun-1c-debris",
        "lat": 71.5825091497297,
        "lon": -66.76787885138475,
        "alt_km": 715.5409270205673,
        "timestamp": "2025-12-11T20:41:15.368789+00:00",
        "meta_object_name": "FENGYUN 1C DEB",
        "meta_object_id": "1999-025DTM",
        "meta_epoch": "2025-12-10T17:53:45.757536",
        "meta_mean_motion": 14.60603785,
        "meta_eccentricity": 0.00476278,
        "meta_inclination": 98.5851,
        "meta_ra_of_asc_node": 85.0962,
        "meta_arg_of_pericenter": 310.9096,
        "meta_mean_anomaly": 48.7983,
        "meta_ephemeris_type": 0,
        "meta_classification_type": "U",
        "meta_norad_cat_id": 36188,
        "meta_element_set_no": 999,
        "meta_rev_at_epoch": 88023,
        "meta_bstar": 0.0038994823,
        "meta_mean_motion_dot": 0.00019263,
        "meta_mean_motion_ddot": 0,
        "tle_line1": "1 36188U 99025DTM 25344.74566849  .00019263  00000+0  38995-2 0  9994",
        "tle_line2": "2 36188  98.5851  85.0962 0047627 310.9096  48.7983 14.60603785880238"
      },
      "geometry": {
        "type": "Point",
        "coordinates": [
          -66.76787885138475,
          71.5825091497297
        ]
      }
    },
    {
      "type": "Feature",
      "properties": {
        "norad_id": 36198,
        "name": "FENGYUN 1C DEB",
        "group": "fengyun-1c-debris",
        "lat": -6.235586361270324,
        "lon": 16.19727095739062,
        "alt_km": 909.0228218016455,
        "timestamp": "2025-12-11T20:41:15.368799+00:00",
        "meta_object_name": "FENGYUN 1C DEB",
        "meta_object_id": "1999-025DTX",
        "meta_epoch": "2025-12-06T12:47:36.841920",
        "meta_mean_motion": 14.07854185,
        "meta_eccentricity": 0.00971183,
        "meta_inclination": 98.6232,
        "meta_ra_of_asc_node": 10.1569,
        "meta_arg_of_pericenter": 132.8086,
        "meta_mean_anomaly": 228.1301,
        "meta_ephemeris_type": 0,
        "meta_classification_type": "U",
        "meta_norad_cat_id": 36198,
        "meta_element_set_no": 999,
        "meta_rev_at_epoch": 63500,
        "meta_bstar": 0.002549244,
        "meta_mean_motion_dot": 4.475e-05,
        "meta_mean_motion_ddot": 0,
        "tle_line1": "1 36198U 99025DTX 25340.53306530  .00004475  00000+0  25492-2 0  9994",
        "tle_line2": "2 36198  98.6232  10.1569 0097118 132.8086 228.1301 14.07854185635009"
      },
      "geometry": {
        "type": "Point",
        "coordinates": [
          16.19727095739062,
          -6.235586361270324
        ]
      }
    },
    {
      "type": "Feature",
      "properties": {
        "norad_id": 36199,
        "name": "FENGYUN 1C DEB",
        "group": "fengyun-1c-debris",
        "lat": 41.70618502147009,
        "lon": -165.48966451932927,
        "alt_km": 763.6573880068036,
        "timestamp": "2025-12-11T20:41:15.368809+00:00",
        "meta_object_name": "FENGYUN 1C DEB",
        "meta_object_id": "1999-025DTY",
        "meta_epoch": "2025-12-09T21:01:24.472416",
        "meta_mean_motion": 14.29643136,
        "meta_eccentricity": 0.00929805,
        "meta_inclination": 98.2902,
        "meta_ra_of_asc_node": 5.1538,
        "meta_arg_of_pericenter": 75.8738,
        "meta_mean_anomaly": 285.2756,
        "meta_ephemeris_type": 0,
        "meta_classification_type": "U",
        "meta_norad_cat_id": 36199,
        "meta_element_set_no": 999,
        "meta_rev_at_epoch": 64939,
        "meta_bstar": 0.00037118247,
        "meta_mean_motion_dot": 9.56e-06,
        "meta_mean_motion_ddot": 0,
        "tle_line1": "1 36199U 99025DTY 25343.87597769  .00000956  00000+0  37118-3 0  9990",
        "tle_line2": "2 36199  98.2902   5.1538 0092980  75.8738 285.2756 14.29643136649393"
      },
      "geometry": {
        "type": "Point",
        "coordinates": [
          -165.48966451932927,
          41.70618502147009
        ]
      }
    }
  ]
}